OBJECT_NAME,OBJECT_ID,EPOCH,MEAN_MOTION,ECCENTRICITY,INCLINATION,RA_OF_ASC_NODE,ARG_OF_PERICENTER,MEAN_ANOMALY,EPHEMERIS_TYPE,CLASSIFICATION_TYPE,NORAD_CAT_ID,ELEMENT_SET_NO,REV_AT_EPOCH,BSTAR,MEAN_MOTION_DOT,MEAN_MOTION_DDOT
EYESAT A (AO-27),1993-061C,2026-06-14T04:52:12.298368,14.30941512,.00095095,98.6880,232.6175,107.4097,252.8126,0,U,22825,999,70657,.5039341E-4,.88E-6,0
ITAMSAT (IO-26),1993-061D,2026-06-14T04:23:50.455104,14.31368337,.00100955,98.6828,232.5150,92.8223,267.4115,0,U,22826,999,70688,.48499254E-4,.84E-6,0
RADIO ROSTO (RS15),1994-085A,2026-06-14T02:24:47.697120,11.27583525,.01558563,64.8180,308.2082,4.4474,355.7795,0,U,23439,999,29555,-.18897632E-3,-.49E-6,0
JAS-2 (FO-29),1996-046B,2026-06-14T03:09:58.644000,13.53274148,.03508673,98.5241,14.4226,104.3391,259.6965,0,U,24278,999,47275,.52657718E-4,.2E-6,0
FORTE,1997-047A,2026-06-14T00:18:13.782528,14.27944061,.0024599,69.9540,21.1920,281.2336,78.6022,0,U,24920,999,49823,.81794341E-4,.145E-5,0
TECHSAT 1B (GO-32),1998-043D,2026-06-13T23:22:07.457952,14.24427891,.00008872,99.0066,157.6512,169.9985,190.1211,0,U,25397,999,45087,.43938268E-4,.55E-6,0
ISS (ZARYA),1998-067A,2026-06-14T02:14:17.517984,15.49219019,.00049359,51.6335,315.4063,183.6835,176.4118,0,U,25544,999,57127,.16324084E-3,.8623E-4,0
IMAGE,2000-017A,2026-06-11T08:17:58.695072,1.68665984,.7436383,94.2241,315.2958,288.4674,8.8959,0,U,26113,999,16140,.22926E-1,.11E-6,0
CLUSTER II-FM7 (SAMBA),2000-041A,2026-06-14T21:49:34.992192,0.44879327,.90502639,149.9112,50.5199,267.6271,359.8755,0,U,26410,999,2029,0,.8926E-4,0
CLUSTER II-FM8 (TANGO),2000-045B,2026-06-12T22:27:38.392992,0.44415453,.90555409,150.1475,51.1959,268.1324,3.0125,0,U,26464,999,2029,0,.6615E-4,0
ODIN,2001-007A,2026-06-14T02:36:50.148000,15.74845621,.00066785,97.3841,205.8567,145.7671,214.4025,0,U,26702,999,38891,.11319478E-2,.169748E-2,0
OMNI-M1,2001-026A,2026-06-13T09:45:05.014656,3.92401476,.00141821,44.8316,246.1359,52.9624,307.2242,0,U,26857,999,20542,0,.5E-7,0
PCSAT (NO-44),2001-043C,2026-06-14T07:05:44.444256,14.31955183,.0006072,67.0507,251.7506,264.5496,95.4913,0,U,26931,999,29003,.66841471E-4,.96E-6,0
PROBA-1,2001-049B,2026-06-14T06:46:44.244192,15.07488192,.00561545,97.9600,173.7135,131.4568,229.1501,0,U,26958,999,34318,.19705627E-3,.3028E-4,0
SAUDISAT 1C (SO-50),2002-058C,2026-06-14T06:08:12.638112,14.83041207,.0075327,64.5509,138.0554,263.0161,96.2373,0,U,27607,999,26402,.12706547E-3,.931E-5,0
CORIOLIS,2003-001A,2026-06-14T07:23:40.967520,14.19944058,.00132211,98.7125,172.2368,217.5004,142.5251,0,U,27640,999,21381,.58610494E-4,.81E-6,0
CUTE-1 (CO-55),2003-031E,2026-06-14T00:23:46.397472,14.24333986,.00093156,98.6736,173.6152,187.2201,172.8845,0,U,27844,999,19122,.13536305E-3,.269E-5,0
CUBESAT XI-IV (CO-57),2003-031J,2026-06-14T06:49:41.657952,14.23619426,.00088289,98.6766,173.5948,205.9293,154.1445,0,U,27848,999,19096,.11361748E-3,.215E-5,0
MOZHAETS 4 (RS22),2003-042A,2026-06-14T07:05:08.951136,14.73462884,.0009986,98.3466,349.5726,280.2575,157.7014,0,U,27939,999,21512,.16323702E-3,.1006E-4,0
