EYESAT A (AO-27)        
1 22825U 93061C   26165.20292012  .00000088  00000+0  50393-4 0  9995
2 22825  98.6880 232.6175 0009509 107.4097 252.8126 14.30941512706578
ITAMSAT (IO-26)         
1 22826U 93061D   26165.18322286  .00000084  00000+0  48499-4 0  9990
2 22826  98.6828 232.5150 0010095  92.8223 267.4115 14.31368337706886
RADIO ROSTO (RS15)      
1 23439U 94085A   26165.10055205 -.00000049  00000+0 -18898-3 0  9996
2 23439  64.8180 308.2082 0155856   4.4474 355.7795 11.27583525295552
JAS-2 (FO-29)           
1 24278U 96046B   26165.13192875  .00000020  00000+0  52658-4 0  9995
2 24278  98.5241  14.4226 0350867 104.3391 259.6965 13.53274148472758
FORTE                   
1 24920U 97047A   26165.01265952  .00000145  00000+0  81794-4 0  9996
2 24920  69.9540  21.1920 0024599 281.2336  78.6022 14.27944061498230
TECHSAT 1B (GO-32)      
1 25397U 98043D   26164.97369743  .00000055  00000+0  43938-4 0  9997
2 25397  99.0066 157.6512 0000887 169.9985 190.1211 14.24427891450876
ISS (ZARYA)             
1 25544U 98067A   26165.09325831  .00008623  00000+0  16324-3 0  9998
2 25544  51.6335 315.4063 0004935 183.6835 176.4118 15.49219019571273
IMAGE                   
1 26113U 00017A   26162.34581823  .00000011  00000+0  22926-1 0  9995
2 26113  94.2241 315.2958 7436383 288.4674   8.8959  1.68665984161407
CLUSTER II-FM7 (SAMBA)  
1 26410U 00041A   26165.90943278  .00008926  00000+0  00000+0 0  9993
2 26410 149.9112  50.5199 9050263 267.6271 359.8755  0.44879327 20296
CLUSTER II-FM8 (TANGO)  
1 26464U 00045B   26163.93586103  .00006615  00000+0  00000+0 0  9990
2 26464 150.1475  51.1959 9055540 268.1324   3.0125  0.44415453 20295
ODIN                    
1 26702U 01007A   26165.10891375  .00169748  00000+0  11319-2 0  9990
2 26702  97.3841 205.8567 0006678 145.7671 214.4025 15.74845621388912
OMNI-M1                 
1 26857U 01026A   26164.40630804  .00000005  00000+0  00000+0 0  9994
2 26857  44.8316 246.1359 0014182  52.9624 307.2242  3.92401476205429
PCSAT (NO-44)           
1 26931U 01043C   26165.29565329  .00000096  00000+0  66841-4 0  9993
2 26931  67.0507 251.7506 0006072 264.5496  95.4913 14.31955183290030
PROBA-1                 
1 26958U 01049B   26165.28245653  .00003028  00000+0  19706-3 0  9997
2 26958  97.9600 173.7135 0056154 131.4568 229.1501 15.07488192343183
SAUDISAT 1C (SO-50)     
1 27607U 02058C   26165.25570183  .00000931  00000+0  12707-3 0  9990
2 27607  64.5509 138.0554 0075327 263.0161  96.2373 14.83041207264026
CORIOLIS                
1 27640U 03001A   26165.30811305  .00000081  00000+0  58610-4 0  9996
2 27640  98.7125 172.2368 0013221 217.5004 142.5251 14.19944058213810
CUTE-1 (CO-55)          
1 27844U 03031E   26165.01650923  .00000269  00000+0  13536-3 0  9995
2 27844  98.6736 173.6152 0009315 187.2201 172.8845 14.24333986191223
CUBESAT XI-IV (CO-57)   
1 27848U 03031J   26165.28450993  .00000215  00000+0  11362-3 0  9999
2 27848  98.6766 173.5948 0008828 205.9293 154.1445 14.23619426190963
MOZHAETS 4 (RS22)       
1 27939U 03042A   26165.29524249  .00001006  00000+0  16324-3 0  9991
2 27939  98.3466 349.5726 0009986 280.2575 157.7014 14.73462884215128
